{"type": "FeatureCollection", "features": [ {"type": "Feature", "properties": {"norad_id": 35443, "name": "COSMOS 2251 DEB", "group": "cosmos-2251-debris", "lat": 72.78557347288579, "lon": 76.09994242825528, "alt_km": 518.5832265747804, "timestamp": "2025-12-16T10:53:45.867214+00:00", "meta": {"OBJECT_NAME": "COSMOS 2251 DEB", "OBJECT_ID": "1993-036AKM", "EPOCH": "2025-12-15T08:48:26.743680", "MEAN_MOTION": 14.96932548, "ECCENTRICITY": 0.00731181, "INCLINATION": 73.9871, "RA_OF_ASC_NODE": 326.2641, "ARG_OF_PERICENTER": 107.3149, "MEAN_ANOMALY": 253.6052, "EPHEMERIS_TYPE": 0, "CLASSIFICATION_TYPE": "U", "NORAD_CAT_ID": 35443, "ELEMENT_SET_NO": 999, "REV_AT_EPOCH": 86917, "BSTAR": 0.0020713088, "MEAN_MOTION_DOT": 0.00025182, "MEAN_MOTION_DDOT": 0}, "tle": {"line1": "1 35443U 93036AKM 25349.36697620  .00025182  00000+0  20713-2 0  9994", "line2": "2 35443  73.9871 326.2641 0073118 107.3149 253.6052 14.96932548869170"}}, "geometry": {"type": "Point", "coordinates": [76.09994242825528, 72.78557347288579]}}, {"type": "Feature", "properties": {"norad_id": 35445, "name": "COSMOS 2251 DEB", "group": "cosmos-2251-debris", "lat": -13.16744293391868, "lon": -70.91533740141958, "alt_km": 613.7034262723027, "timestamp": "2025-12-16T10:53:45.867224+00:00", "meta": {"OBJECT_NAME": "COSMOS 2251 DEB", "OBJECT_ID": "1993-036AKP", "EPOCH": "2025-12-15T21:47:39.126336", "MEAN_MOTION": 14.59222686, "ECCENTRICITY": 0.01438348, "INCLINATION": 74.0368, "RA_OF_ASC_NODE": 293.9647, "ARG_OF_PERICENTER": 20.1975, "MEAN_ANOMALY": 340.4799, "EPHEMERIS_TYPE": 0, "CLASSIFICATION_TYPE": "U", "NORAD_CAT_ID": 35445, "ELEMENT_SET_NO": 999, "REV_AT_EPOCH": 87375, "BSTAR": 0.0015699344, "MEAN_MOTION_DOT": 8.537e-05, "MEAN_MOTION_DDOT": 0}, "tle": {"line1": "1 35445U 93036AKP 25349.90809174  .00008537  00000+0  15699-2 0  9997", "line2": "2 35445  74.0368 293.9647 0143834  20.1975 340.4799 14.59222686873759"}}, "geometry": {"type": "Point", "coordinates": [-70.91533740141958, -13.16744293391868]}}, {"type": "Feature", "properties": {"norad_id": 35446, "name": "COSMOS 2251 DEB", "group": "cosmos-2251-debris", "lat": -36.65607485581757, "lon": -61.131573988604956, "alt_km": 731.2675722320346, "timestamp": "2025-12-16T10:53:45.867234+00:00", "meta": {"OBJECT_NAME": "COSMOS 2251 DEB", "OBJECT_ID": "1993-036AKQ", "EPOCH": "2025-12-15T15:15:54.535104", "MEAN_MOTION": 14.54632134, "ECCENTRICITY": 0.00744411, "INCLINATION": 74.047, "RA_OF_ASC_NODE": 312.705, "ARG_OF_PERICENTER": 70.0614, "MEAN_ANOMALY": 290.8548, "EPHEMERIS_TYPE": 0, "CLASSIFICATION_TYPE": "U", "NORAD_CAT_ID": 35446, "ELEMENT_SET_NO": 999, "REV_AT_EPOCH": 88050, "BSTAR": 0.00011676696, "MEAN_MOTION_DOT": 4.88e-06, "MEAN_MOTION_DDOT": 0}, "tle": {"line1": "1 35446U 93036AKQ 25349.63604786  .00000488  00000+0  11677-3 0  9990", "line2": "2 35446  74.0470 312.7050 0074441  70.0614 290.8548 14.54632134880502"}}, "geometry": {"type": "Point", "coordinates": [-61.131573988604956, -36.65607485581757]}}, {"type": "Feature", "properties": {"norad_id": 35448, "name": "COSMOS 2251 DEB", "group": "cosmos-2251-debris", "lat": 3.097376676238819, "lon": -98.46236889894836, "alt_km": 713.529740216456, "timestamp": "2025-12-16T10:53:45.867245+00:00", "meta": {"OBJECT_NAME": "COSMOS 2251 DEB", "OBJECT_ID": "1993-036AKS", "EPOCH": "2025-12-14T16:48:40.813632", "MEAN_MOTION": 14.54286955, "ECCENTRICITY": 0.00119673, "INCLINATION": 73.9048, "RA_OF_ASC_NODE": 85.7736, "ARG_OF_PERICENTER": 268.2948, "MEAN_ANOMALY": 91.6843, "EPHEMERIS_TYPE": 0, "CLASSIFICATION_TYPE": "U", "NORAD_CAT_ID": 35448, "ELEMENT_SET_NO": 999, "REV_AT_EPOCH": 87363, "BSTAR": 0.00094048305, "MEAN_MOTION_DOT": 3.966e-05, "MEAN_MOTION_DDOT": 0}, "tle": {"line1": "1 35448U 93036AKS 25348.70047238  .00003966  00000+0  94048-3 0  9999", "line2": "2 35448  73.9048  85.7736 0011967 268.2948  91.6843 14.54286955873633"}}, "geometry": {"type": "Point", "coordinates": [-98.46236889894836, 3.097376676238819]}}, {"type": "Feature", "properties": {"norad_id": 35451, "name": "COSMOS 2251 DEB", "group": "cosmos-2251-debris", "lat": -26.12657621602349, "lon": -77.2296506278386, "alt_km": 482.3433327026705, "timestamp": "2025-12-16T10:53:45.867255+00:00", "meta": {"OBJECT_NAME": "COSMOS 2251 DEB", "OBJECT_ID": "1993-036AKV", "EPOCH": "2025-12-14T17:21:00.017568", "MEAN_MOTION": 15.35844177, "ECCENTRICITY": 0.00411257, "INCLINATION": 73.9322, "RA_OF_ASC_NODE": 98.383, "ARG_OF_PERICENTER": 344.054, "MEAN_ANOMALY": 15.9367, "EPHEMERIS_TYPE": 0, "CLASSIFICATION_TYPE": "U", "NORAD_CAT_ID": 35451, "ELEMENT_SET_NO": 999, "REV_AT_EPOCH": 67436, "BSTAR": 0.0011714729, "MEAN_MOTION_DOT": 0.00042215, "MEAN_MOTION_DDOT": 0}, "tle": {"line1": "1 35451U 93036AKV 25348.72291687  .00042215  00000+0  11715-2 0  9993", "line2": "2 35451  73.9322  98.3830 0041125 344.0540  15.9367 15.35844177674362"}}, "geometry": {"type": "Point", "coordinates": [-77.2296506278386, -26.12657621602349]}}, {"type": "Feature", "properties": {"norad_id": 35453, "name": "COSMOS 2251 DEB", "group": "cosmos-2251-debris", "lat": 11.288884879282074, "lon": 16.802906308461175, "alt_km": 799.7645461189913, "timestamp": "2025-12-16T10:53:45.867265+00:00", "meta": {"OBJECT_NAME": "COSMOS 2251 DEB", "OBJECT_ID": "1993-036AKX", "EPOCH": "2025-12-12T10:00:01.192608", "MEAN_MOTION": 14.37983532, "ECCENTRICITY": 0.00672601, "INCLINATION": 74.0093, "RA_OF_ASC_NODE": 20.9669, "ARG_OF_PERICENTER": 155.0047, "MEAN_ANOMALY": 205.439, "EPHEMERIS_TYPE": 0, "CLASSIFICATION_TYPE": "U", "NORAD_CAT_ID": 35453, "ELEMENT_SET_NO": 999, "REV_AT_EPOCH": 86214, "BSTAR": 0.0010887113, "MEAN_MOTION_DOT": 3.355e-05, "MEAN_MOTION_DDOT": 0}, "tle": {"line1": "1 35453U 93036AKX 25346.41668047  .00003355  00000+0  10887-2 0  9998", "line2": "2 35453  74.0093  20.9669 0067260 155.0047 205.4390 14.37983532862149"}}, "geometry": {"type": "Point", "coordinates": [16.802906308461175, 11.288884879282074]}}, {"type": "Feature", "properties": {"norad_id": 35455, "name": "COSMOS 2251 DEB", "group": "cosmos-2251-debris", "lat": 16.90080935261293, "lon": -67.17692547555869, "alt_km": 658.8065962813525, "timestamp": "2025-12-16T10:53:45.867275+00:00", "meta": {"OBJECT_NAME": "COSMOS 2251 DEB", "OBJECT_ID": "1993-036AKZ", "EPOCH": "2025-12-15T06:39:23.942880", "MEAN_MOTION": 14.49440801, "ECCENTRICITY": 0.00992528, "INCLINATION": 74.0281, "RA_OF_ASC_NODE": 290.039, "ARG_OF_PERICENTER": 32.9545, "MEAN_ANOMALY": 327.7748, "EPHEMERIS_TYPE": 0, "CLASSIFICATION_TYPE": "U", "NORAD_CAT_ID": 35455, "ELEMENT_SET_NO": 999, "REV_AT_EPOCH": 86580, "BSTAR": 0.0011136115, "MEAN_MOTION_DOT": 4.513e-05, "MEAN_MOTION_DDOT": 0}, "tle": {"line1": "1 35455U 93036AKZ 25349.27736045  .00004513  00000+0  11136-2 0  9996", "line2": "2 35455  74.0281 290.0390 0099252  32.9545 327.7748 14.49440801865804"}}, "geometry": {"type": "Point", "coordinates": [-67.17692547555869, 16.90080935261293]}}, {"type": "Feature", "properties": {"norad_id": 35456, "name": "COSMOS 2251 DEB", "group": "cosmos-2251-debris", "lat": -67.38714375167625, "lon": 66.52104246776054, "alt_km": 630.4639239480357, "timestamp": "2025-12-16T10:53:45.867285+00:00", "meta": {"OBJECT_NAME": "COSMOS 2251 DEB", "OBJECT_ID": "1993-036ALA", "EPOCH": "2025-12-14T15:06:45.279936", "MEAN_MOTION": 14.69470866, "ECCENTRICITY": 0.00660928, "INCLINATION": 73.9499, "RA_OF_ASC_NODE": 113.7944, "ARG_OF_PERICENTER": 323.212, "MEAN_ANOMALY": 36.4523, "EPHEMERIS_TYPE": 0, "CLASSIFICATION_TYPE": "U", "NORAD_CAT_ID": 35456, "ELEMENT_SET_NO": 999, "REV_AT_EPOCH": 65903, "BSTAR": 0.0014662865, "MEAN_MOTION_DOT": 8.962e-05, "MEAN_MOTION_DDOT": 0}, "tle": {"line1": "1 35456U 93036ALA 25348.62969074  .00008962  00000+0  14663-2 0  9995", "line2": "2 35456  73.9499 113.7944 0066092 323.2120  36.4523 14.69470866659038"}}, "geometry": {"type": "Point", "coordinates": [66.52104246776054, -67.38714375167625]}}, {"type": "Feature", "properties": {"norad_id": 35459, "name": "COSMOS 2251 DEB", "group": "cosmos-2251-debris", "lat": -57.52919945213637, "lon": 27.433189441942044, "alt_km": 778.3042004522431, "timestamp": "2025-12-16T10:53:45.867295+00:00", "meta": {"OBJECT_NAME": "COSMOS 2251 DEB", "OBJECT_ID": "1993-036ALD", "EPOCH": "2025-12-13T06:36:57.783456", "MEAN_MOTION": 14.37463066, "ECCENTRICITY": 0.00162707, "INCLINATION": 73.8693, "RA_OF_ASC_NODE": 186.288, "ARG_OF_PERICENTER": 133.9432, "MEAN_ANOMALY": 226.3067, "EPHEMERIS_TYPE": 0, "CLASSIFICATION_TYPE": "U", "NORAD_CAT_ID": 35459, "ELEMENT_SET_NO": 999, "REV_AT_EPOCH": 58369, "BSTAR": 0.00036578266, "MEAN_MOTION_DOT": 1.069e-05, "MEAN_MOTION_DDOT": 0}, "tle": {"line1": "1 35459U 93036ALD 25347.27566879  .00001069  00000+0  36578-3 0  9995", "line2": "2 35459  73.8693 186.2880 0016270 133.9432 226.3067 14.37463066583695"}}, "geometry": {"type": "Point", "coordinates": [27.433189441942044, -57.52919945213637]}}, {"type": "Feature", "properties": {"norad_id": 35462, "name": "COSMOS 2251 DEB", "group": "cosmos-2251-debris", "lat": -14.786838641876972, "lon": 86.27195355034772, "alt_km": 809.6445029912666, "timestamp": "2025-12-16T10:53:45.867305+00:00", "meta": {"OBJECT_NAME": "COSMOS 2251 DEB", "OBJECT_ID": "1993-036ALG", "EPOCH": "2025-12-15T12:08:22.276032", "MEAN_MOTION": 14.29319782, "ECCENTRICITY": 0.00867718, "INCLINATION": 74.0367, "RA_OF_ASC_NODE": 263.6601, "ARG_OF_PERICENTER": 298.2214, "MEAN_ANOMALY": 61.0193, "EPHEMERIS_TYPE": 0, "CLASSIFICATION_TYPE": "U", "NORAD_CAT_ID": 35462, "ELEMENT_SET_NO": 999, "REV_AT_EPOCH": 66420, "BSTAR": 0.0011070348, "MEAN_MOTION_DOT": 2.91e-05, "MEAN_MOTION_DDOT": 0}, "tle": {"line1": "1 35462U 93036ALG 25349.50581338  .00002910  00000+0  11070-2 0  9999", "line2": "2 35462  74.0367 263.6601 0086771 298.2214  61.0193 14.29319782664204"}}, "geometry": {"type": "Point", "coordinates": [86.27195355034772, -14.786838641876972]}}]}